[
    {
        "Altitude(m)": 584351.0834194493,
        "Argument of Periapsis(deg)": -0.022603160782972403,
        "Eccentricity": 0.0,
        "Inclination(deg)": 97.0,
        "Latitude(deg)": -53.90417361571947,
        "Longitude(deg)": 68.01344403804853,
        "Mean Anomaly(deg)": 234.27284326918752,
        "RAAN(deg)": 0.005947053618510769,
        "Satellite Name": "Starlink Shell 3 1616",
        "Satellite Number": 1616,
        "Semi-Major Axis(m)": 6938478.169268562,
        "Time(s)": 570
    },
    {
        "Altitude(m)": 584582.0200925566,
        "Argument of Periapsis(deg)": -0.02299970746337543,
        "Eccentricity": 0.0,
        "Inclination(deg)": 97.0,
        "Latitude(deg)": -54.513332099072805,
        "Longitude(deg)": 67.75107596717471,
        "Mean Anomaly(deg)": 234.89831946689256,
        "RAAN(deg)": 0.00605138789251973,
        "Satellite Name": "Starlink Shell 3 1616",
        "Satellite Number": 1616,
        "Semi-Major Axis(m)": 6938478.169268562,
        "Time(s)": 580
    },
    {
        "Altitude(m)": 584810.7649354539,
        "Argument of Periapsis(deg)": -0.023396254143778456,
        "Eccentricity": 0.0,
        "Inclination(deg)": 97.0,
        "Latitude(deg)": -55.12199041398976,
        "Longitude(deg)": 67.48206100429287,
        "Mean Anomaly(deg)": 235.5237956645976,
        "RAAN(deg)": 0.0061557221665286925,
        "Satellite Name": "Starlink Shell 3 1616",
        "Satellite Number": 1616,
        "Semi-Major Axis(m)": 6938478.169268562,
        "Time(s)": 590
    },
    {
        "Altitude(m)": 585037.2264728777,
        "Argument of Periapsis(deg)": -0.023792800824181483,
        "Eccentricity": 0.0,
        "Inclination(deg)": 97.0,
        "Latitude(deg)": -55.73012713480424,
        "Longitude(deg)": 67.206045093179,
        "Mean Anomaly(deg)": 236.14927186230264,
        "RAAN(deg)": 0.0062600564405376515,
        "Satellite Name": "Starlink Shell 3 1616",
        "Satellite Number": 1616,
        "Semi-Major Axis(m)": 6938478.169268562,
        "Time(s)": 600
    },
    {
        "Altitude(m)": 585261.31408343,
        "Argument of Periapsis(deg)": -0.024189347504584503,
        "Eccentricity": 0.0,
        "Inclination(deg)": 97.0,
        "Latitude(deg)": -56.337719296443424,
        "Longitude(deg)": 66.92264954941491,
        "Mean Anomaly(deg)": 236.77474806000768,
        "RAAN(deg)": 0.006364390714546612,
        "Satellite Name": "Starlink Shell 3 1616",
        "Satellite Number": 1616,
        "Semi-Major Axis(m)": 6938478.169268562,
        "Time(s)": 610
    },
    {
        "Altitude(m)": 585482.9380393422,
        "Argument of Periapsis(deg)": -0.02458589418498753,
        "Eccentricity": 0.0,
        "Inclination(deg)": 97.0,
        "Latitude(deg)": -56.94474225249158,
        "Longitude(deg)": 66.63146940714448,
        "Mean Anomaly(deg)": 237.40022425771275,
        "RAAN(deg)": 0.0064687249885555746,
        "Satellite Name": "Starlink Shell 3 1616",
        "Satellite Number": 1616,
        "Semi-Major Axis(m)": 6938478.169268562,
        "Time(s)": 620
    },
    {
        "Altitude(m)": 585702.0095457919,
        "Argument of Periapsis(deg)": -0.024982440865390556,
        "Eccentricity": 0.0,
        "Inclination(deg)": 97.0,
        "Latitude(deg)": -57.551169517936415,
        "Longitude(deg)": 66.33206985876251,
        "Mean Anomaly(deg)": 238.0257004554178,
        "RAAN(deg)": 0.006573059262564535,
        "Satellite Name": "Starlink Shell 3 1616",
        "Satellite Number": 1616,
        "Semi-Major Axis(m)": 6938478.169268562,
        "Time(s)": 630
    },
    {
        "Altitude(m)": 585918.4407797739,
        "Argument of Periapsis(deg)": -0.025378987545793576,
        "Eccentricity": 0.0,
        "Inclination(deg)": 97.0,
        "Latitude(deg)": -58.15697259465722,
        "Longitude(deg)": 66.0239849624357,
        "Mean Anomaly(deg)": 238.65117665312283,
        "RAAN(deg)": 0.006677393536573496,
        "Satellite Name": "Starlink Shell 3 1616",
        "Satellite Number": 1616,
        "Semi-Major Axis(m)": 6938478.169268562,
        "Time(s)": 640
    },
    {
        "Altitude(m)": 586132.1449285119,
        "Argument of Periapsis(deg)": -0.025775534226196602,
        "Eccentricity": 0.0,
        "Inclination(deg)": 97.0,
        "Latitude(deg)": -58.76212077743796,
        "Longitude(deg)": 65.70671354325317,
        "Mean Anomaly(deg)": 239.27665285082787,
        "RAAN(deg)": 0.006781727810582457,
        "Satellite Name": "Starlink Shell 3 1616",
        "Satellite Number": 1616,
        "Semi-Major Axis(m)": 6938478.169268562,
        "Time(s)": 650
    },
    {
        "Altitude(m)": 586343.0362273445,
        "Argument of Periapsis(deg)": -0.026172080906599626,
        "Eccentricity": 0.0,
        "Inclination(deg)": 97.0,
        "Latitude(deg)": -59.36658093795688,
        "Longitude(deg)": 65.37971645475103,
        "Mean Anomaly(deg)": 239.9021290485329,
        "RAAN(deg)": 0.006886062084591417,
        "Satellite Name": "Starlink Shell 3 1616",
        "Satellite Number": 1616,
        "Semi-Major Axis(m)": 6938478.169268562,
        "Time(s)": 660
    },
    {
        "Altitude(m)": 586551.0299971454,
        "Argument of Periapsis(deg)": -0.026568627587002652,
        "Eccentricity": 0.0,
        "Inclination(deg)": 97.0,
        "Latitude(deg)": -59.97031728382703,
        "Longitude(deg)": 65.04241347913418,
        "Mean Anomaly(deg)": 240.52760524623798,
        "RAAN(deg)": 0.006990396358600378,
        "Satellite Name": "Starlink Shell 3 1616",
        "Satellite Number": 1616,
        "Semi-Major Axis(m)": 6938478.169268562,
        "Time(s)": 670
    },
    {
        "Altitude(m)": 586756.0426812079,
        "Argument of Periapsis(deg)": -0.02696517426740568,
        "Eccentricity": 0.0,
        "Inclination(deg)": 97.0,
        "Latitude(deg)": -60.57329108931515,
        "Longitude(deg)": 64.69417830679565,
        "Mean Anomaly(deg)": 241.15308144394302,
        "RAAN(deg)": 0.00709473063260934,
        "Satellite Name": "Starlink Shell 3 1616",
        "Satellite Number": 1616,
        "Semi-Major Axis(m)": 6938478.169268562,
        "Time(s)": 680
    },
    {
        "Altitude(m)": 586957.9918816001,
        "Argument of Periapsis(deg)": -0.0273617209478087,
        "Eccentricity": 0.0,
        "Inclination(deg)": 97.0,
        "Latitude(deg)": -61.17546039384281,
        "Longitude(deg)": 64.33433456760456,
        "Mean Anomaly(deg)": 241.77855764164806,
        "RAAN(deg)": 0.007199064906618299,
        "Satellite Name": "Starlink Shell 3 1616",
        "Satellite Number": 1616,
        "Semi-Major Axis(m)": 6938478.169268562,
        "Time(s)": 690
    },
    {
        "Altitude(m)": 587156.7963949688,
        "Argument of Periapsis(deg)": -0.027758267628211725,
        "Eccentricity": 0.0,
        "Inclination(deg)": 97.0,
        "Latitude(deg)": -61.77677966376631,
        "Longitude(deg)": 63.96215134002576,
        "Mean Anomaly(deg)": 242.40403383935302,
        "RAAN(deg)": 0.00730339918062726,
        "Satellite Name": "Starlink Shell 3 1616",
        "Satellite Number": 1616,
        "Semi-Major Axis(m)": 6938478.169268562,
        "Time(s)": 700
    },
    {
        "Altitude(m)": 587352.376247795,
        "Argument of Periapsis(deg)": -0.028154814308614752,
        "Eccentricity": 0.0,
        "Inclination(deg)": 97.0,
        "Latitude(deg)": -62.37719941221161,
        "Longitude(deg)": 63.576836555088065,
        "Mean Anomaly(deg)": 243.02951003705806,
        "RAAN(deg)": 0.0074077334546362224,
        "Satellite Name": "Starlink Shell 3 1616",
        "Satellite Number": 1616,
        "Semi-Major Axis(m)": 6938478.169268562,
        "Time(s)": 710
    },
    {
        "Altitude(m)": 587544.6527310679,
        "Argument of Periapsis(deg)": -0.02855136098901778,
        "Eccentricity": 0.0,
        "Inclination(deg)": 97.0,
        "Latitude(deg)": -62.97666577088971,
        "Longitude(deg)": 63.17753124032958,
        "Mean Anomaly(deg)": 243.65498623476313,
        "RAAN(deg)": 0.007512067728645183,
        "Satellite Name": "Starlink Shell 3 1616",
        "Satellite Number": 1616,
        "Semi-Major Axis(m)": 6938478.169268562,
        "Time(s)": 720
    },
    {
        "Altitude(m)": 587733.5484343575,
        "Argument of Periapsis(deg)": -0.028947907669420805,
        "Eccentricity": 0.0,
        "Inclination(deg)": 97.0,
        "Latitude(deg)": -63.57512000682091,
        "Longitude(deg)": 62.763302998047145,
        "Mean Anomaly(deg)": 244.28046243246817,
        "RAAN(deg)": 0.007616402002654144,
        "Satellite Name": "Starlink Shell 3 1616",
        "Satellite Number": 1616,
        "Semi-Major Axis(m)": 6938478.169268562,
        "Time(s)": 730
    },
    {
        "Altitude(m)": 587918.9872793282,
        "Argument of Periapsis(deg)": -0.029344454349823825,
        "Eccentricity": 0.0,
        "Inclination(deg)": 97.0,
        "Latitude(deg)": -64.17249797571408,
        "Longitude(deg)": 62.33313709801184,
        "Mean Anomaly(deg)": 244.9059386301732,
        "RAAN(deg)": 0.0077207362766631045,
        "Satellite Name": "Starlink Shell 3 1616",
        "Satellite Number": 1616,
        "Semi-Major Axis(m)": 6938478.169268562,
        "Time(s)": 740
    },
    {
        "Altitude(m)": 588100.8945525805,
        "Argument of Periapsis(deg)": -0.029741001030226845,
        "Eccentricity": 0.0,
        "Inclination(deg)": 97.0,
        "Latitude(deg)": -64.76872950233312,
        "Longitude(deg)": 61.885928086954145,
        "Mean Anomaly(deg)": 245.53141482787825,
        "RAAN(deg)": 0.007825070550672067,
        "Satellite Name": "Starlink Shell 3 1616",
        "Satellite Number": 1616,
        "Semi-Major Axis(m)": 6938478.169268562,
        "Time(s)": 750
    }
]